{
  "constellation": "oneweb",
  "timestamp": "2025-07-21T05:06:13.717346+00:00",
  "satellite_count": 651,
  "data": [
    {
      "satellite_name": "ONEWEB-0600",
      "catalog_number": 54664,
      "epoch_year": 2025,
      "epoch_day": 201.56752312,
      "first_derivative": 5.8e-07,
      "second_derivative": 0.0,
      "drag_term": 0.0,
      "inclination": 87.9266,
      "right_ascension": 310.1437,
      "eccentricity": 0.0002104,
      "argument_of_perigee": 103.3673,
      "mean_anomaly": 256.7695,
      "mean_motion": 13.21825503,
      "revolution_number": 12770,
      "line1": "1 54664U 22166Y   25201.56752312  .00000058  00000+0  10850-3 0  9992",
      "line2": "2 54664  87.9266 310.1437 0002104 103.3673 256.7695 13.21825503127701",
      "last_updated": "2025-07-21T05:06:13.714794+00:00",
      "constellation": "oneweb"
    },
    {
      "satellite_name": "ONEWEB-0601",
      "catalog_number": 54665,
      "epoch_year": 2025,
      "epoch_day": 201.86242077,
      "first_derivative": 7.2e-07,
      "second_derivative": 0.0,
      "drag_term": 0.0,
      "inclination": 87.9274,
      "right_ascension": 310.0984,
      "eccentricity": 0.000186,
      "argument_of_perigee": 111.0252,
      "mean_anomaly": 249.1081,
      "mean_motion": 13.21826398,
      "revolution_number": 12839,
      "line1": "1 54665U 22166Z   25201.86242077  .00000072  00000+0  14356-3 0  9999",
      "line2": "2 54665  87.9274 310.0984 0001860 111.0252 249.1081 13.21826398128398",
      "last_updated": "2025-07-21T05:06:13.714797+00:00",
      "constellation": "oneweb"
    },
    {
      "satellite_name": "ONEWEB-0602",
      "catalog_number": 54666,
      "epoch_year": 2025,
      "epoch_day": 201.60063294,
      "first_derivative": -1.9e-07,
      "second_derivative": 0.0,
      "drag_term": -7.732e-05,
      "inclination": 87.9283,
      "right_ascension": 310.1512,
      "eccentricity": 0.0002138,
      "argument_of_perigee": 106.4278,
      "mean_anomaly": 253.7091,
      "mean_motion": 13.21825549,
      "revolution_number": 12774,
      "line1": "1 54666U 22166AA  25201.60063294 -.00000019  00000+0 -77320-4 0  9998",
      "line2": "2 54666  87.9283 310.1512 0002138 106.4278 253.7091 13.21825549127749",
      "last_updated": "2025-07-21T05:06:13.714799+00:00",
      "constellation": "oneweb"
    },
    {
      "satellite_name": "ONEWEB-0603",
      "catalog_number": 54667,
      "epoch_year": 2025,
      "epoch_day": 201.52967923,
      "first_derivative": 8e-07,
      "second_derivative": 0.0,
      "drag_term": 0.0,
      "inclination": 87.9265,
      "right_ascension": 310.1033,
      "eccentricity": 0.0002036,
      "argument_of_perigee": 107.9606,
      "mean_anomaly": 252.175,
      "mean_motion": 13.21826946,
      "revolution_number": 12766,
      "line1": "1 54667U 22166AB  25201.52967923  .00000080  00000+0  16299-3 0  9995",
      "line2": "2 54667  87.9265 310.1033 0002036 107.9606 252.1750 13.21826946127664",
      "last_updated": "2025-07-21T05:06:13.714801+00:00",
      "constellation": "oneweb"
    },
    {
      "satellite_name": "ONEWEB-0604",
      "catalog_number": 54668,
      "epoch_year": 2025,
      "epoch_day": 201.59275944,
      "first_derivative": -6e-08,
      "second_derivative": 0.0,
      "drag_term": -4.5869000000000004e-05,
      "inclination": 87.9278,
      "right_ascension": 310.1119,
      "eccentricity": 0.0002117,
      "argument_of_perigee": 106.2266,
      "mean_anomaly": 253.9101,
      "mean_motion": 13.21824994,
      "revolution_number": 12763,
      "line1": "1 54668U 22166AC  25201.59275944 -.00000006  00000+0 -45869-4 0  9994",
      "line2": "2 54668  87.9278 310.1119 0002117 106.2266 253.9101 13.21824994127635",
      "last_updated": "2025-07-21T05:06:13.714803+00:00",
      "constellation": "oneweb"
    },
    {
      "satellite_name": "ONEWEB-0605",
      "catalog_number": 54669,
      "epoch_year": 2025,
      "epoch_day": 201.58643872,
      "first_derivative": -2.1e-07,
      "second_derivative": 0.0,
      "drag_term": -8.2802e-05,
      "inclination": 87.9277,
      "right_ascension": 310.1439,
      "eccentricity": 0.0001617,
      "argument_of_perigee": 119.9455,
      "mean_anomaly": 240.184,
      "mean_motion": 13.21825641,
      "revolution_number": 12817,
      "line1": "1 54669U 22166AD  25201.58643872 -.00000021  00000+0 -82802-4 0  9998",
      "line2": "2 54669  87.9277 310.1439 0001617 119.9455 240.1840 13.21825641128173",
      "last_updated": "2025-07-21T05:06:13.714805+00:00",
      "constellation": "oneweb"
    },
    {
      "satellite_name": "ONEWEB-0606",
      "catalog_number": 54670,
      "epoch_year": 2025,
      "epoch_day": 201.5328305,
      "first_derivative": 1.9e-07,
      "second_derivative": 0.0,
      "drag_term": 0.0,
      "inclination": 87.9278,
      "right_ascension": 310.1662,
      "eccentricity": 0.0001956,
      "argument_of_perigee": 95.4102,
      "mean_anomaly": 264.7255,
      "mean_motion": 13.21825074,
      "revolution_number": 12775,
      "line1": "1 54670U 22166AE  25201.53283050  .00000019  00000+0  15558-4 0  9992",
      "line2": "2 54670  87.9278 310.1662 0001956  95.4102 264.7255 13.21825074127752",
      "last_updated": "2025-07-21T05:06:13.714807+00:00",
      "constellation": "oneweb"
    },
    {
      "satellite_name": "ONEWEB-0607",
      "catalog_number": 54671,
      "epoch_year": 2025,
      "epoch_day": 201.575401,
      "first_derivative": -2e-08,
      "second_derivative": 0.0,
      "drag_term": -3.646e-05,
      "inclination": 87.9274,
      "right_ascension": 310.1219,
      "eccentricity": 0.0002003,
      "argument_of_perigee": 104.8462,
      "mean_anomaly": 255.2894,
      "mean_motion": 13.21823984,
      "revolution_number": 12773,
      "line1": "1 54671U 22166AF  25201.57540100 -.00000002  00000+0 -36460-4 0  9998",
      "line2": "2 54671  87.9274 310.1219 0002003 104.8462 255.2894 13.21823984127735",
      "last_updated": "2025-07-21T05:06:13.714809+00:00",
      "constellation": "oneweb"
    },
    {
      "satellite_name": "ONEWEB-0608",
      "catalog_number": 54672,
      "epoch_year": 2025,
      "epoch_day": 201.58171623,
      "first_derivative": 0.0,
      "second_derivative": 0.0,
      "drag_term": -3.2412e-05,
      "inclination": 87.9265,
      "right_ascension": 310.1078,
      "eccentricity": 0.0001967,
      "argument_of_perigee": 116.9738,
      "mean_anomaly": 243.1597,
      "mean_motion": 13.21826796,
      "revolution_number": 12820,
      "line1": "1 54672U 22166AG  25201.58171623  .00000000  00000+0 -32412-4 0  9990",
      "line2": "2 54672  87.9265 310.1078 0001967 116.9738 243.1597 13.21826796128200",
      "last_updated": "2025-07-21T05:06:13.714811+00:00",
      "constellation": "oneweb"
    },
    {
      "satellite_name": "ONEWEB-0610",
      "catalog_number": 54673,
      "epoch_year": 2025,
      "epoch_day": 201.56282404,
      "first_derivative": -3.313e-05,
      "second_derivative": 0.0,
      "drag_term": -0.0080599,
      "inclination": 87.9283,
      "right_ascension": 310.1465,
      "eccentricity": 0.0001931,
      "argument_of_perigee": 117.6255,
      "mean_anomaly": 242.5075,
      "mean_motion": 13.2179701,
      "revolution_number": 12764,
      "line1": "1 54673U 22166AH  25201.56282404 -.00003313  00000+0 -80599-2 0  9997",
      "line2": "2 54673  87.9283 310.1465 0001931 117.6255 242.5075 13.21797010127641",
      "last_updated": "2025-07-21T05:06:13.714813+00:00",
      "constellation": "oneweb"
    },
    {
      "satellite_name": "ONEWEB-0611",
      "catalog_number": 54674,
      "epoch_year": 2025,
      "epoch_day": 201.85926668,
      "first_derivative": -1e-07,
      "second_derivative": 0.0,
      "drag_term": -5.5114e-05,
      "inclination": 87.9273,
      "right_ascension": 310.0827,
      "eccentricity": 0.0002075,
      "argument_of_perigee": 94.4635,
      "mean_anomaly": 265.6735,
      "mean_motion": 13.21825192,
      "revolution_number": 12814,
      "line1": "1 54674U 22166AJ  25201.85926668 -.00000010  00000+0 -55114-4 0  9995",
      "line2": "2 54674  87.9273 310.0827 0002075  94.4635 265.6735 13.21825192128144",
      "last_updated": "2025-07-21T05:06:13.714815+00:00",
      "constellation": "oneweb"
    },
    {
      "satellite_name": "ONEWEB-0612",
      "catalog_number": 54675,
      "epoch_year": 2025,
      "epoch_day": 201.72048716,
      "first_derivative": -4.1e-07,
      "second_derivative": 0.0,
      "drag_term": -0.0001297,
      "inclination": 87.9271,
      "right_ascension": 310.0874,
      "eccentricity": 0.0001958,
      "argument_of_perigee": 106.5752,
      "mean_anomaly": 253.5597,
      "mean_motion": 13.21824363,
      "revolution_number": 12811,
      "line1": "1 54675U 22166AK  25201.72048716 -.00000041  00000+0 -12970-3 0  9997",
      "line2": "2 54675  87.9271 310.0874 0001958 106.5752 253.5597 13.21824363128117",
      "last_updated": "2025-07-21T05:06:13.714817+00:00",
      "constellation": "oneweb"
    },
    {
      "satellite_name": "ONEWEB-0615",
      "catalog_number": 54676,
      "epoch_year": 2025,
      "epoch_day": 201.55017965,
      "first_derivative": 8e-07,
      "second_derivative": 0.0,
      "drag_term": 0.0,
      "inclination": 87.9277,
      "right_ascension": 310.1477,
      "eccentricity": 0.0002035,
      "argument_of_perigee": 100.1155,
      "mean_anomaly": 260.0208,
      "mean_motion": 13.21826437,
      "revolution_number": 12763,
      "line1": "1 54676U 22166AL  25201.55017965  .00000080  00000+0  16272-3 0  9991",
      "line2": "2 54676  87.9277 310.1477 0002035 100.1155 260.0208 13.21826437127630",
      "last_updated": "2025-07-21T05:06:13.714819+00:00",
      "constellation": "oneweb"
    }
  ]
}